ONEWEB-0694             
1 56722U 23068N   23325.80130447  .00002650  00000+0  35914-3 0  9990
2 56722  86.7255  64.5877 0012630 298.5916  61.4033 14.78525538 28214
ONEWEB-0696             
1 56723U 23068P   23325.85262957  .00000076  00000+0  16684-3 0  9991
2 56723  87.8995  86.0235 0001210  96.2565 263.8703 13.15544802 25999
ONEWEB-0703             
1 56724U 23068Q   23325.86243386 -.00013043  00000+0 -34808-1 0  9994
2 56724  87.9017  86.0434 0000859  40.5558 319.5636 13.15393929 25883
ONEWEB-0721             
1 56725U 23068R   23325.80914507  .00003857  00000+0  46445-3 0  9991
2 56725  86.6781  63.1035 0008609 299.3392  60.6971 14.83619925 28299
